NORAD_CAT_ID,OBJECT_NAME,OBJECT_TYPE,EPOCH,MEAN_MOTION,ECCENTRICITY,INCLINATION,RA_OF_ASC_NODE,ARG_OF_PERICENTER,MEAN_ANOMALY,BSTAR,MEAN_MOTION_DOT,MEAN_MOTION_DDOT,TLE_LINE0,TLE_LINE1,TLE_LINE2,SEMIMAJOR_AXIS,PERIOD,APOGEE,PERIGEE,DECAYED
55652.0,STARLINK-5487,PAYLOAD,2024-03-30 15:16:13,14.98327716,0.0003258,70.0015,172.1679,261.9588,98.1202,0.0002407,2.78e-05,0.0,0 STARLINK-5487,1 55652U 23021AA  24090.63626195  .00002780  00000-0  24070-3 0  9997,2 55652  70.0015 172.1679 0003258 261.9588  98.1202 14.98327716 62589,6950.2,96.107,574.329,569.801,0.0
55652.0,STARLINK-5487,PAYLOAD,2024-03-31 12:05:57,14.98338693,0.0003423,70.0003,169.9808,264.7201,95.3568,0.00017179,1.958e-05,0.0,0 STARLINK-5487,1 55652U 23021AA  24091.50413516  .00001958  00000-0  17179-3 0  9993,2 55652  70.0003 169.9808 0003423 264.7201  95.3568 14.98338693 62413,6950.166,96.106,574.41,569.652,0.0
55652.0,STARLINK-5487,PAYLOAD,2024-03-31 13:42:05,14.98339501,0.0003484,70.001,169.8126,267.0966,92.9794,0.00018131,2.072e-05,0.0,0 STARLINK-5487,1 55652U 23021AA  24091.57089475  .00002072  00000-0  18131-3 0  9990,2 55652  70.0010 169.8126 0003484 267.0966  92.9794 14.98339501 62721,6950.164,96.106,574.45,569.607,0.0
55652.0,STARLINK-5487,PAYLOAD,2024-03-31 15:18:13,14.98340607,0.0003477,70.0011,169.6443,267.0944,92.9817,0.00020229,2.322e-05,0.0,0 STARLINK-5487,1 55652U 23021AA  24091.63765401  .00002322  00000-0  20229-3 0  9996,2 55652  70.0011 169.6443 0003477 267.0944  92.9817 14.98340607 62736,6950.16,96.106,574.442,569.609,0.0
55652.0,STARLINK-5487,PAYLOAD,2024-04-01 12:07:59,14.98320769,0.0002958,70.0018,167.4589,263.0602,97.0221,3.9484e-05,3.78e-06,0.0,0 STARLINK-5487,1 55652U 23021AA  24092.50554901  .00000378  00000-0  39484-4 0  9997,2 55652  70.0018 167.4589 0002958 263.0602  97.0221 14.98320769 62563,6950.221,96.108,574.142,570.031,0.0
55652.0,STARLINK-5487,PAYLOAD,2024-04-01 13:44:07,14.98322712,0.0002987,70.0016,167.2904,262.9392,97.1427,-2.7383e-05,-4.2e-06,0.0,0 STARLINK-5487,1 55652U 23021AA  24092.57230920 -.00000420  00000-0 -27383-4 0  9991,2 55652  70.0016 167.2904 0002987 262.9392  97.1427 14.98322712 62879,6950.215,96.107,574.156,570.004,0.0
55652.0,STARLINK-5487,PAYLOAD,2024-04-02 04:09:19,14.98334273,0.0003473,69.9998,165.773,268.5268,91.5493,9.2443e-05,1.01e-05,0.0,0 STARLINK-5487,1 55652U 23021AA  24093.17313940  .00001010  00000-0  92443-4 0  9995,2 55652  69.9998 165.7730 0003473 268.5268  91.5493 14.98334273 62663,6950.18,96.107,574.458,569.631,0.0
55652.0,STARLINK-5487,PAYLOAD,2024-04-02 12:09:59,14.9834099,0.0003448,69.9997,164.9312,269.7982,90.2782,0.0001591,1.806e-05,0.0,0 STARLINK-5487,1 55652U 23021AA  24093.50693394  .00001806  00000-0  15910-3 0  9992,2 55652  69.9997 164.9312 0003448 269.7982  90.2782 14.98340990 63017,6950.159,96.106,574.42,569.627,0.0
55652.0,STARLINK-5487,PAYLOAD,2024-04-02 13:46:07,14.98341279,0.0003349,70.0,164.7629,268.8728,91.2048,0.00018832,2.155e-05,0.0,0 STARLINK-5487,1 55652U 23021AA  24093.57369333  .00002155  00000-0  18832-3 0  9996,2 55652  70.0000 164.7629 0003349 268.8728  91.2048 14.98341279 62726,6950.158,96.106,574.351,569.695,0.0
55652.0,STARLINK-5487,PAYLOAD,2024-04-02 21:46:47,14.98341883,0.0003447,69.9996,163.9211,269.5838,90.4926,0.00014337,1.619e-05,0.0,0 STARLINK-5487,1 55652U 23021AA  24093.90749233  .00001619  00000-0  14337-3 0  9994,2 55652  69.9996 163.9211 0003447 269.5838  90.4926 14.98341883 63070,6950.156,96.106,574.417,569.625,0.0
55652.0,STARLINK-5487,PAYLOAD,2024-04-03 04:11:20,14.98330898,0.0003238,70.0011,163.2484,269.7323,90.3465,0.00018034,2.059e-05,0.0,0 STARLINK-5487,1 55652U 23021AA  24094.17453996  .00002059  00000-0  18034-3 0  9999,2 55652  70.0011 163.2484 0003238 269.7323  90.3465 14.98330898 62817,6950.19,96.107,574.306,569.805,0.0
55652.0,STARLINK-5487,PAYLOAD,2024-04-03 12:12:00,14.98330821,0.0003279,70.0011,162.4072,268.2282,91.8502,0.00013794,1.553e-05,0.0,0 STARLINK-5487,1 55652U 23021AA  24094.50834023  .00001553  00000-0  13794-3 0  9996,2 55652  70.0011 162.4072 0003279 268.2282  91.8502 14.98330821 63167,6950.19,96.107,574.334,569.776,0.0
55652.0,STARLINK-5487,PAYLOAD,2024-04-03 15:24:16,14.98331936,0.0003283,70.0011,162.0705,268.2514,91.827,0.00014543,1.643e-05,0.0,0 STARLINK-5487,1 55652U 23021AA  24094.64185975  .00001643  00000-0  14543-3 0  9999,2 55652  70.0011 162.0705 0003283 268.2514  91.8270 14.98331936 63181,6950.187,96.107,574.334,569.77,0.0
55652.0,STARLINK-5487,PAYLOAD,2024-04-04 04:13:21,14.98333439,0.0003146,70.0014,160.7245,267.626,92.4538,-4.4589e-05,-6.25e-06,0.0,0 STARLINK-5487,1 55652U 23021AA  24095.17593843 -.00000625  00000-0 -44589-4 0  9990,2 55652  70.0014 160.7245 0003146 267.6260  92.4538 14.98333439 62966,6950.182,96.107,574.234,569.861,0.0
55652.0,STARLINK-5487,PAYLOAD,2024-04-04 12:14:03,14.9831302,0.0003116,70.0,159.8828,268.496,91.5842,-0.00022653,-2.794e-05,0.0,0 STARLINK-5487,1 55652U 23021AA  24095.50976017 -.00002794  00000-0 -22653-3 0  9991,2 55652  70.0000 159.8828 0003116 268.4960  91.5842 14.98313020 63019,6950.245,96.108,574.276,569.945,0.0
55652.0,STARLINK-5487,PAYLOAD,2024-04-04 13:50:11,14.98312391,0.0003118,70.0,159.7145,268.6648,91.4154,-0.00023489,-2.893e-05,0.0,0 STARLINK-5487,1 55652U 23021AA  24095.57652121 -.00002893  00000-0 -23489-3 0  9993,2 55652  70.0000 159.7145 0003118 268.6648  91.4154 14.98312391 63326,6950.247,96.108,574.279,569.945,0.0
55652.0,STARLINK-5487,PAYLOAD,2024-04-05 04:15:23,14.98319156,0.000344,69.999,158.1985,269.7123,90.3642,3.692e-05,3.47e-06,0.0,0 STARLINK-5487,1 55652U 23021AA  24096.17735479  .00000347  00000-0  36920-4 0  9993,2 55652  69.9990 158.1985 0003440 269.7123  90.3642 14.98319156 63117,6950.226,96.108,574.482,569.701,0.0
55652.0,STARLINK-5487,PAYLOAD,2024-04-05 12:16:03,14.98328861,0.0003363,70.0003,157.3565,268.9601,91.1172,0.00022765,2.624e-05,0.0,0 STARLINK-5487,1 55652U 23021AA  24096.51115102  .00002624  00000-0  22765-3 0  9997,2 55652  70.0003 157.3565 0003363 268.9601  91.1172 14.98328861 63161,6950.196,96.107,574.399,569.724,0.0
55652.0,STARLINK-5487,PAYLOAD,2024-04-05 13:52:11,14.98331316,0.0003429,70.0002,157.188,269.3922,90.6844,0.00028866,3.353e-05,0.0,0 STARLINK-5487,1 55652U 23021AA  24096.57791072  .00003353  00000-0  28866-3 0  9997,2 55652  70.0002 157.1880 0003429 269.3922  90.6844 14.98331316 63475,6950.189,96.107,574.437,569.671,0.0
55652.0,STARLINK-5487,PAYLOAD,2024-04-06 10:41:56,14.9835462,0.0003343,70.0012,155.0002,269.5197,90.5579,0.0010846,0.00012881,0.0,0 STARLINK-5487,1 55652U 23021AA  24097.44578836  .00012881  00000-0  10846-2 0  9999,2 55652  70.0012 155.0002 0003343 269.5197  90.5579 14.98354620 63309,6950.117,96.105,574.305,569.658,0.0
55652.0,STARLINK-5487,PAYLOAD,2024-04-07 10:43:56,14.98346098,0.0003091,70.0007,152.4756,267.6092,92.4713,0.00028947,3.364e-05,0.0,0 STARLINK-5487,1 55652U 23021AA  24098.44718079  .00003364  00000-0  28947-3 0  9993,2 55652  70.0007 152.4756 0003091 267.6092  92.4713 14.98346098 63753,6950.143,96.106,574.156,569.86,0.0
55652.0,STARLINK-5487,PAYLOAD,2024-04-07 20:20:44,14.98346346,0.0003124,70.0008,151.4667,267.6499,92.4302,7.5551e-05,8.09e-06,0.0,0 STARLINK-5487,1 55652U 23021AA  24098.84773650  .00000809  00000-0  75551-4 0  9998,2 55652  70.0008 151.4667 0003124 267.6499  92.4302 14.98346346 63819,6950.142,96.106,574.179,569.836,0.0
55652.0,STARLINK-5487,PAYLOAD,2024-04-08 04:21:24,14.98345109,0.000281,70.0022,150.6256,262.8289,97.2551,0.00018975,2.173e-05,0.0,0 STARLINK-5487,1 55652U 23021AA  24099.18153568  .00002173  00000-0  18975-3 0  9998,2 55652  70.0022 150.6256 0002810 262.8289  97.2551 14.98345109 63562,6950.146,96.106,573.964,570.058,0.0
55652.0,STARLINK-5487,PAYLOAD,2024-04-08 09:09:48,14.98342239,0.0002782,70.0017,150.1204,261.5641,98.5202,8.6603e-05,9.41e-06,0.0,0 STARLINK-5487,1 55652U 23021AA  24099.38181497  .00000941  00000-0  86603-4 0  9997,2 55652  70.0017 150.1204 0002782 261.5641  98.5202 14.98342239 63894,6950.155,96.106,573.954,570.087,0.0
55652.0,STARLINK-5487,PAYLOAD,2024-04-08 20:22:45,14.98340031,0.0002839,70.0014,148.9417,268.9614,91.122,4.9767e-05,5.01e-06,0.0,0 STARLINK-5487,1 55652U 23021AA  24099.84913332  .00000501  00000-0  49767-4 0  9991,2 55652  70.0014 148.9417 0002839 268.9614  91.1220 14.98340031 63961,6950.162,96.106,574.0,570.054,0.0
55652.0,STARLINK-5487,PAYLOAD,2024-04-09 04:23:25,14.98336257,0.0003014,70.0011,148.0998,267.5322,92.5492,5.9553e-05,6.18e-06,0.0,0 STARLINK-5487,1 55652U 23021AA  24100.18293353  .00000618  00000-0  59553-4 0  9998,2 55652  70.0011 148.0998 0003014 267.5322  92.5492 14.98336257 63714,6950.174,96.107,574.133,569.944,0.0
55652.0,STARLINK-5487,PAYLOAD,2024-04-09 09:11:49,14.98338795,0.0002962,70.0008,147.595,267.5497,92.5322,0.00011634,1.296e-05,0.0,0 STARLINK-5487,1 55652U 23021AA  24100.38321246  .00001296  00000-0  11634-3 0  9993,2 55652  70.0008 147.5950 0002962 267.5497  92.5322 14.98338795 64044,6950.166,96.106,574.089,569.972,0.0
55652.0,STARLINK-5487,PAYLOAD,2024-04-09 20:24:45,14.9833656,0.0003478,69.9999,146.4162,268.2864,91.7897,-8.3126e-05,-1.085e-05,0.0,0 STARLINK-5487,1 55652U 23021AA  24100.85053064 -.00001085  00000-0 -83126-4 0  9999,2 55652  69.9999 146.4162 0003478 268.2864  91.7897 14.98336560 64116,6950.173,96.107,574.455,569.62,0.0
55652.0,STARLINK-5487,PAYLOAD,2024-04-10 04:25:26,14.98330489,0.0003132,70.0,145.5745,268.4876,91.5924,0.00026962,3.126e-05,0.0,0 STARLINK-5487,1 55652U 23021AA  24101.18433576  .00003126  00000-0  26962-3 0  9996,2 55652  70.0000 145.5745 0003132 268.4876  91.5924 14.98330489 63865,6950.191,96.107,574.233,569.88,0.0
55652.0,STARLINK-5487,PAYLOAD,2024-04-10 12:26:06,14.98333145,0.0003131,69.9998,144.7326,270.0877,89.9923,5.2714e-05,5.36e-06,0.0,0 STARLINK-5487,1 55652U 23021AA  24101.51813298  .00000536  00000-0  52714-4 0  9993,2 55652  69.9998 144.7326 0003131 270.0877  89.9923 14.98333145 64215,6950.183,96.107,574.224,569.872,0.0
